start=new Date('2022-01-05T00:00:00.000Z').valueOf();
sats=[{"MEAN_MOTION":"15.06397874","GP_ID":"193178711","CLASSIFICATION_TYPE":"U","NORAD_CAT_ID":"45663","EPHEMERIS_TYPE":"0","FILE":"3263295","EPOCH":"2022-01-04T09:52:47.704800","OBJECT_ID":"2020-035G","TIME_SYSTEM":"UTC","TLE_LINE1":"1 45663U 20035G   22004.41166325  .00000201  00000-0  32403-4 0  9999","MEAN_ELEMENT_THEORY":"SGP4","BSTAR":"0.00003240300000","INCLINATION":"53.0537","OBJECT_NAME":"STARLINK-1446","ECCENTRICITY":"0.00016140","DECAY_DATE":null,"LAUNCH_DATE":"2020-06-04","COUNTRY_CODE":"US","TLE_LINE2":"2 45663  53.0537  73.8578 0001614  77.3806 282.7364 15.06397874 88839","MEAN_ANOMALY":"282.7364","SEMIMAJOR_AXIS":"6925.355","CENTER_NAME":"EARTH","RCS_SIZE":"LARGE","PERIOD":"95.592","RA_OF_ASC_NODE":"73.8578","ARG_OF_PERICENTER":"77.3806","REV_AT_EPOCH":"8883","PERIAPSIS":"546.102","OBJECT_TYPE":"PAYLOAD","REF_FRAME":"TEME","MEAN_MOTION_DDOT":"0.0000000000000","SITE":"AFETR","APOAPSIS":"548.338","MEAN_MOTION_DOT":"0.00000201","ELEMENT_SET_NO":"999"},{"BSTAR":"0.00003369600000","TLE_LINE1":"1 45665U 20035J   22004.57753654  .00000220  00000-0  33696-4 0  9991","MEAN_ELEMENT_THEORY":"SGP4","DECAY_DATE":null,"COUNTRY_CODE":"US","LAUNCH_DATE":"2020-06-04","INCLINATION":"53.0545","OBJECT_NAME":"STARLINK-1448","ECCENTRICITY":"0.00012860","FILE":"3264067","MEAN_MOTION":"15.06389616","GP_ID":"193212814","CLASSIFICATION_TYPE":"U","NORAD_CAT_ID":"45665","EPHEMERIS_TYPE":"0","EPOCH":"2022-01-04T13:51:39.157056","OBJECT_ID":"2020-035J","TIME_SYSTEM":"UTC","REF_FRAME":"TEME","MEAN_MOTION_DDOT":"0.0000000000000","OBJECT_TYPE":"PAYLOAD","APOAPSIS":"548.136","MEAN_MOTION_DOT":"0.00000220","ELEMENT_SET_NO":"999","SITE":"AFETR","SEMIMAJOR_AXIS":"6925.380","CENTER_NAME":"EARTH","TLE_LINE2":"2 45665  53.0545  73.1084 0001286  86.3308 273.7828 15.06389616 88859","MEAN_ANOMALY":"273.7828","ARG_OF_PERICENTER":"86.3308","REV_AT_EPOCH":"8885","PERIAPSIS":"546.355","RCS_SIZE":"LARGE","PERIOD":"95.593","RA_OF_ASC_NODE":"73.1084"},{"EPHEMERIS_TYPE":"0","NORAD_CAT_ID":"45666","GP_ID":"193213566","CLASSIFICATION_TYPE":"U","MEAN_MOTION":"15.06406186","FILE":"3264067","TIME_SYSTEM":"UTC","EPOCH":"2022-01-04T14:00:53.573760","OBJECT_ID":"2020-035K","MEAN_ELEMENT_THEORY":"SGP4","TLE_LINE1":"1 45666U 20035K   22004.58395340  .00000427  00000-0  47585-4 0  9998","BSTAR":"0.00004758500000","ECCENTRICITY":"0.00014050","INCLINATION":"53.0557","OBJECT_NAME":"STARLINK-1449","LAUNCH_DATE":"2020-06-04","COUNTRY_CODE":"US","DECAY_DATE":null,"MEAN_ANOMALY":"279.8914","TLE_LINE2":"2 45666  53.0557  73.0885 0001405  80.2233 279.8914 15.06406186 88859","CENTER_NAME":"EARTH","SEMIMAJOR_AXIS":"6925.330","RA_OF_ASC_NODE":"73.0885","PERIOD":"95.592","RCS_SIZE":"LARGE","PERIAPSIS":"546.222","REV_AT_EPOCH":"8885","ARG_OF_PERICENTER":"80.2233","OBJECT_TYPE":"PAYLOAD","MEAN_MOTION_DDOT":"0.0000000000000","REF_FRAME":"TEME","SITE":"AFETR","ELEMENT_SET_NO":"999","MEAN_MOTION_DOT":"0.00000427","APOAPSIS":"548.168"},{"CLASSIFICATION_TYPE":"U","GP_ID":"193214316","MEAN_MOTION":"15.06404207","NORAD_CAT_ID":"45667","EPHEMERIS_TYPE":"0","FILE":"3264067","TIME_SYSTEM":"UTC","OBJECT_ID":"2020-035L","EPOCH":"2022-01-04T13:56:56.772960","TLE_LINE1":"1 45667U 20035L   22004.58121265  .00000348  00000-0  42255-4 0  9993","MEAN_ELEMENT_THEORY":"SGP4","BSTAR":"0.00004225500000","INCLINATION":"53.0546","OBJECT_NAME":"STARLINK-1450","ECCENTRICITY":"0.00012400","DECAY_DATE":null,"LAUNCH_DATE":"2020-06-04","COUNTRY_CODE":"US","MEAN_ANOMALY":"278.3159","TLE_LINE2":"2 45667  53.0546  73.0940 0001240  81.7971 278.3159 15.06404207 88859","SEMIMAJOR_AXIS":"6925.336","CENTER_NAME":"EARTH","RA_OF_ASC_NODE":"73.0940","PERIOD":"95.592","RCS_SIZE":"LARGE","REV_AT_EPOCH":"8885","ARG_OF_PERICENTER":"81.7971","PERIAPSIS":"546.342","OBJECT_TYPE":"PAYLOAD","MEAN_MOTION_DDOT":"0.0000000000000","REF_FRAME":"TEME","SITE":"AFETR","MEAN_MOTION_DOT":"0.00000348","APOAPSIS":"548.059","ELEMENT_SET_NO":"999"},{"RCS_SIZE":"LARGE","RA_OF_ASC_NODE":"73.4966","PERIOD":"95.593","ARG_OF_PERICENTER":"78.1903","REV_AT_EPOCH":"8885","PERIAPSIS":"546.313","TLE_LINE2":"2 45668  53.0585  73.4966 0001336  78.1903 281.9236 15.06391854 88855","MEAN_ANOMALY":"281.9236","SEMIMAJOR_AXIS":"6925.374","CENTER_NAME":"EARTH","SITE":"AFETR","APOAPSIS":"548.164","MEAN_MOTION_DOT":"-0.00001283","ELEMENT_SET_NO":"999","OBJECT_TYPE":"PAYLOAD","REF_FRAME":"TEME","MEAN_MOTION_DDOT":"0.0000000000000","OBJECT_ID":"2020-035M","EPOCH":"2022-01-04T11:37:35.953824","TIME_SYSTEM":"UTC","CLASSIFICATION_TYPE":"U","GP_ID":"193178212","MEAN_MOTION":"15.06391854","NORAD_CAT_ID":"45668","EPHEMERIS_TYPE":"0","FILE":"3263295","INCLINATION":"53.0585","OBJECT_NAME":"STARLINK-1451","ECCENTRICITY":"0.00013360","DECAY_DATE":null,"COUNTRY_CODE":"US","LAUNCH_DATE":"2020-06-04","TLE_LINE1":"1 45668U 20035M   22004.48444391 -.00001283  00000-0 -67276-4 0  9992","MEAN_ELEMENT_THEORY":"SGP4","BSTAR":"-0.00006727600000"},{"PERIAPSIS":"546.273","ARG_OF_PERICENTER":"69.6760","REV_AT_EPOCH":"8887","RCS_SIZE":"LARGE","RA_OF_ASC_NODE":"72.7156","PERIOD":"95.592","CENTER_NAME":"EARTH","SEMIMAJOR_AXIS":"6925.359","TLE_LINE2":"2 45669  53.0550  72.7156 0001372  69.6760 290.4376 15.06396749 88877","MEAN_ANOMALY":"290.4376","ELEMENT_SET_NO":"999","APOAPSIS":"548.174","MEAN_MOTION_DOT":"-0.00000767","SITE":"AFETR","REF_FRAME":"TEME","MEAN_MOTION_DDOT":"0.0000000000000","OBJECT_TYPE":"PAYLOAD","EPOCH":"2022-01-04T15:59:02.138208","OBJECT_ID":"2020-035N","TIME_SYSTEM":"UTC","FILE":"3264067","NORAD_CAT_ID":"45669","EPHEMERIS_TYPE":"0","GP_ID":"193213314","MEAN_MOTION":"15.06396749","CLASSIFICATION_TYPE":"U","LAUNCH_DATE":"2020-06-04","COUNTRY_CODE":"US","DECAY_DATE":null,"ECCENTRICITY":"0.00013720","OBJECT_NAME":"STARLINK-1452","INCLINATION":"53.0550","BSTAR":"-0.00003258700000","MEAN_ELEMENT_THEORY":"SGP4","TLE_LINE1":"1 45669U 20035N   22004.66599697 -.00000767  00000-0 -32587-4 0  9996"},{"DECAY_DATE":null,"LAUNCH_DATE":"2020-06-04","COUNTRY_CODE":"US","INCLINATION":"53.0566","OBJECT_NAME":"STARLINK-1453","ECCENTRICITY":"0.00012940","BSTAR":"-0.00008469400000","TLE_LINE1":"1 45670U 20035P   22004.39231810 -.00001542  00000-0 -84694-4 0  9996","MEAN_ELEMENT_THEORY":"SGP4","TIME_SYSTEM":"UTC","EPOCH":"2022-01-04T09:24:56.283840","OBJECT_ID":"2020-035P","FILE":"3263295","GP_ID":"193177211","CLASSIFICATION_TYPE":"U","MEAN_MOTION":"15.06395347","EPHEMERIS_TYPE":"0","NORAD_CAT_ID":"45670","MEAN_MOTION_DOT":"-0.00001542","APOAPSIS":"548.124","ELEMENT_SET_NO":"999","SITE":"AFETR","MEAN_MOTION_DDOT":"0.0000000000000","REF_FRAME":"TEME","OBJECT_TYPE":"PAYLOAD","REV_AT_EPOCH":"8914","ARG_OF_PERICENTER":"79.5920","PERIAPSIS":"546.332","RA_OF_ASC_NODE":"43.9406","PERIOD":"95.592","RCS_SIZE":"LARGE","SEMIMAJOR_AXIS":"6925.363","CENTER_NAME":"EARTH","MEAN_ANOMALY":"280.5215","TLE_LINE2":"2 45670  53.0566  43.9406 0001294  79.5920 280.5215 15.06395347 89141"},{"DECAY_DATE":null,"LAUNCH_DATE":"2020-06-04","COUNTRY_CODE":"US","INCLINATION":"53.0541","OBJECT_NAME":"STARLINK-1454","ECCENTRICITY":"0.00012410","BSTAR":"0.00008064800000","TLE_LINE1":"1 45671U 20035Q   22004.66968246  .00000920  00000-0  80648-4 0  9999","MEAN_ELEMENT_THEORY":"SGP4","EPOCH":"2022-01-04T16:04:20.564544","OBJECT_ID":"2020-035Q","TIME_SYSTEM":"UTC","FILE":"3264067","GP_ID":"193213817","CLASSIFICATION_TYPE":"U","MEAN_MOTION":"15.06400027","EPHEMERIS_TYPE":"0","NORAD_CAT_ID":"45671","APOAPSIS":"548.073","MEAN_MOTION_DOT":"0.00000920","ELEMENT_SET_NO":"999","SITE":"AFETR","REF_FRAME":"TEME","MEAN_MOTION_DDOT":"0.0000000000000","OBJECT_TYPE":"PAYLOAD","ARG_OF_PERICENTER":"88.0936","REV_AT_EPOCH":"8886","PERIAPSIS":"546.354","RCS_SIZE":"LARGE","RA_OF_ASC_NODE":"72.6987","PERIOD":"95.592","SEMIMAJOR_AXIS":"6925.348","CENTER_NAME":"EARTH","TLE_LINE2":"2 45671  53.0541  72.6987 0001241  88.0936 272.0195 15.06400027 88865","MEAN_ANOMALY":"272.0195"},{"FILE":"3263295","GP_ID":"193178712","CLASSIFICATION_TYPE":"U","MEAN_MOTION":"15.06393735","NORAD_CAT_ID":"45672","EPHEMERIS_TYPE":"0","OBJECT_ID":"2020-035R","EPOCH":"2022-01-04T09:56:47.270400","TIME_SYSTEM":"UTC","BSTAR":"0.00001917500000","TLE_LINE1":"1 45672U 20035R   22004.41443600  .00000004  00000-0  19175-4 0  9995","MEAN_ELEMENT_THEORY":"SGP4","DECAY_DATE":null,"COUNTRY_CODE":"US","LAUNCH_DATE":"2020-06-04","INCLINATION":"53.0552","OBJECT_NAME":"STARLINK-1455","ECCENTRICITY":"0.00014800","SEMIMAJOR_AXIS":"6925.368","CENTER_NAME":"EARTH","TLE_LINE2":"2 45672  53.0552  43.8556 0001480  62.8460 297.2679 15.06393735 89254","MEAN_ANOMALY":"297.2679","ARG_OF_PERICENTER":"62.8460","REV_AT_EPOCH":"8925","PERIAPSIS":"546.208","RCS_SIZE":"LARGE","RA_OF_ASC_NODE":"43.8556","PERIOD":"95.593","REF_FRAME":"TEME","MEAN_MOTION_DDOT":"0.0000000000000","OBJECT_TYPE":"PAYLOAD","APOAPSIS":"548.258","MEAN_MOTION_DOT":"0.00000004","ELEMENT_SET_NO":"999","SITE":"AFETR"},{"FILE":"3263295","NORAD_CAT_ID":"45673","EPHEMERIS_TYPE":"0","CLASSIFICATION_TYPE":"U","GP_ID":"193178463","MEAN_MOTION":"15.06394221","TIME_SYSTEM":"UTC","OBJECT_ID":"2020-035S","EPOCH":"2022-01-04T10:03:24.958368","BSTAR":"-0.00006698500000","MEAN_ELEMENT_THEORY":"SGP4","TLE_LINE1":"1 45673U 20035S   22004.41903887 -.00001279  00000-0 -66985-4 0  9992","COUNTRY_CODE":"US","LAUNCH_DATE":"2020-06-04","DECAY_DATE":null,"ECCENTRICITY":"0.00014200","INCLINATION":"53.0544","OBJECT_NAME":"STARLINK-1456","CENTER_NAME":"EARTH","SEMIMAJOR_AXIS":"6925.366","MEAN_ANOMALY":"280.6745","TLE_LINE2":"2 45673  53.0544  73.8277 0001420  79.4404 280.6745 15.06394221 88840","PERIAPSIS":"546.248","REV_AT_EPOCH":"8884","ARG_OF_PERICENTER":"79.4404","PERIOD":"95.593","RA_OF_ASC_NODE":"73.8277","RCS_SIZE":"LARGE","MEAN_MOTION_DDOT":"0.0000000000000","REF_FRAME":"TEME","OBJECT_TYPE":"PAYLOAD","ELEMENT_SET_NO":"999","MEAN_MOTION_DOT":"-0.00001279","APOAPSIS":"548.215","SITE":"AFETR"}];
